OBJECT_NAME,OBJECT_ID,EPOCH,MEAN_MOTION,ECCENTRICITY,INCLINATION,RA_OF_ASC_NODE,ARG_OF_PERICENTER,MEAN_ANOMALY,EPHEMERIS_TYPE,CLASSIFICATION_TYPE,NORAD_CAT_ID,ELEMENT_SET_NO,REV_AT_EPOCH,BSTAR,MEAN_MOTION_DOT,MEAN_MOTION_DDOT
STARLINK-35318,2025-240A,2026-06-11T05:05:51.254592,15.34405240,.00006407,53.1587,347.2523,72.0432,288.0641,0,U,66146,999,3637,.88316475E-3,.29586E-3,0
STARLINK-33948,2025-240B,2026-06-10T19:29:33.954720,15.30212838,.00012581,53.1608,350.4329,85.2262,274.8883,0,U,66147,999,3629,.5041242E-3,.14607E-3,0
STARLINK-35081,2025-240C,2026-06-11T04:59:47.736096,15.34399958,.0001221,53.1593,347.2140,91.9344,268.1798,0,U,66148,999,3632,.67144222E-3,.22377E-3,0
STARLINK-35601,2025-240D,2026-06-11T05:57:32.665536,15.30204579,.00012145,53.1621,348.1784,86.7480,273.3660,0,U,66149,999,3631,.79302777E-3,.23205E-3,0
STARLINK-35605,2025-240E,2026-06-11T06:05:08.721888,15.30200762,.00011979,53.1612,348.2090,65.4339,294.6786,0,U,66150,999,3631,.85178804E-3,.24954E-3,0
STARLINK-35540,2025-240F,2026-06-10T19:21:51.910848,15.34393725,.000123,53.1596,348.9806,97.6435,262.4708,0,U,66151,999,3626,.32846551E-3,.10735E-3,0
STARLINK-35455,2025-240G,2026-06-10T19:27:55.932192,15.34404114,.00012556,53.1602,349.0145,85.4277,274.6869,0,U,66152,999,3626,.6743963E-3,.22481E-3,0
STARLINK-34752,2025-240H,2026-06-10T20:07:20.510976,15.34404040,.00014842,53.1604,349.1810,98.2595,261.8576,0,U,66153,999,3626,.72619691E-3,.24242E-3,0
STARLINK-34625,2025-240J,2026-06-10T19:20:27.038400,15.30207498,.0001083,53.1606,350.3923,83.9793,276.1332,0,U,66154,999,3629,.85926374E-3,.25182E-3,0
STARLINK-35580,2025-240K,2026-06-11T05:54:12.208896,15.34404000,.00012464,53.1615,346.7475,84.6126,275.5019,0,U,66155,999,3633,.74995811E-3,.2505E-3,0
STARLINK-35621,2025-240L,2026-06-11T05:04:31.443456,15.30203580,.00008803,53.1584,348.6615,115.3408,244.7684,0,U,66156,999,3630,.33486323E-3,.9573E-4,0
STARLINK-35594,2025-240M,2026-06-11T05:17:58.511904,15.34400156,.00012351,53.1602,347.2959,90.1105,270.0039,0,U,66157,999,3632,.85705601E-3,.28692E-3,0
STARLINK-35587,2025-240N,2026-06-10T19:17:24.579744,15.30206580,.00012078,53.1603,350.3824,75.1911,284.9223,0,U,66158,999,3624,.37558665E-3,.10783E-3,0
STARLINK-35586,2025-240P,2026-06-11T05:48:16.195968,15.34407919,.00011796,53.1604,347.4278,77.2039,282.9096,0,U,66159,999,3632,.70426572E-3,.23499E-3,0
STARLINK-35636,2025-240Q,2026-06-10T19:41:43.500768,15.30204409,.00011383,53.1599,350.4849,85.2836,274.8295,0,U,66160,999,3624,.71723631E-3,.20946E-3,0
STARLINK-35635,2025-240R,2026-06-10T17:44:52.636704,15.30202763,.00009008,53.1597,350.6910,64.4116,295.6978,0,U,66161,999,3623,.78360891E-3,.22923E-3,0
STARLINK-35633,2025-240S,2026-06-11T05:52:59.047104,15.30208042,.00011935,53.1615,348.1427,94.0951,266.0186,0,U,66162,999,3631,.42709483E-3,.12314E-3,0
STARLINK-35607,2025-240T,2026-06-10T19:24:53.972064,15.34404447,.00013334,53.1610,348.9847,97.6641,262.4513,0,U,66163,999,3626,.5302333E-3,.17583E-3,0
STARLINK-35614,2025-240U,2026-06-11T05:11:54.712608,15.34421257,.00012815,53.1594,347.2637,102.6744,257.4402,0,U,66164,999,3632,.83043834E-3,.27804E-3,0
STARLINK-35575,2025-240V,2026-06-11T05:02:49.191648,15.34413373,.00011634,53.1592,347.2253,113.7759,246.3365,0,U,66165,999,3632,.57230232E-3,.19017E-3,0
STARLINK-35624,2025-240W,2026-06-10T19:12:45.271872,15.34357041,.00007098,53.1592,348.9286,119.9353,240.1720,0,U,66166,999,3626,.31446401E-3,.10249E-3,0
STARLINK-35641,2025-240X,2026-06-11T05:08:52.885536,15.34399063,.00013559,53.1594,347.2445,86.4833,273.6325,0,U,66167,999,3632,.82708368E-3,.2767E-3,0
STARLINK-35578,2025-240Y,2026-06-11T06:00:35.189856,15.30197927,.00013124,53.1613,348.1771,82.1216,277.9934,0,U,66168,999,3631,.34535055E-3,.9882E-4,0
STARLINK-35638,2025-240Z,2026-06-10T20:59:02.486976,15.30179502,.00016905,53.1596,350.0970,78.9999,281.1191,0,U,66169,999,3625,.85470191E-3,.25024E-3,0
STARLINK-35585,2025-240AA,2026-06-11T05:14:56.483520,15.34423118,.00006847,53.1598,347.2753,89.2442,270.8639,0,U,66170,999,3632,.90326383E-3,.30288E-3,0
STARLINK-35606,2025-240AB,2026-06-10T19:15:48.227328,15.34408923,.00010997,53.1604,348.9444,104.1256,255.9869,0,U,66171,999,3626,.45576167E-3,.15058E-3,0
STARLINK-35627,2025-240AC,2026-06-10T19:11:19.779072,15.30175751,.00008758,53.1604,350.3390,81.1060,279.0040,0,U,66172,999,3624,.5271972E-3,.15275E-3,0
STARLINK-35634,2025-240AD,2026-06-11T04:56:45.815712,15.34402363,.00011697,53.1577,347.1952,104.0154,256.0978,0,U,66173,999,3632,.58125375E-3,.19314E-3,0
STARLINK-35363,2025-243B,2026-06-11T07:04:24.521664,15.30195885,.00012643,53.1582,170.5734,77.2793,282.8349,0,U,66178,999,3498,.65688131E-3,.19143E-3,0
STARLINK-35346,2025-243C,2026-06-11T06:00:02.000160,15.34395857,.00008626,53.1603,170.6835,77.9554,85.1909,0,U,66179,999,577,-.42948752E-3,-.14856E-3,0
STARLINK-35335,2025-243D,2026-06-11T07:13:31.567584,15.30193526,.00013615,53.1571,170.6104,88.8723,271.2434,0,U,66180,999,3498,.64287189E-3,.18725E-3,0
STARLINK-35342,2025-243E,2026-06-11T05:42:30.417120,15.30204099,.00013125,53.1566,170.9249,120.4368,239.6763,0,U,66181,999,3497,.65781163E-3,.19176E-3,0
STARLINK-35333,2025-243F,2026-06-10T07:48:48.239712,15.30209768,.00011229,53.1571,175.1894,92.2474,267.8655,0,U,66182,999,3483,.31946587E-3,.9117E-4,0
STARLINK-35310,2025-243G,2026-06-11T06:54:22.811328,15.34396533,.0001354,53.1607,170.5304,89.7801,270.3356,0,U,66183,999,3498,.46877134E-3,.15493E-3,0
STARLINK-35317,2025-243H,2026-06-11T06:00:02.000160,15.34311778,.00030857,53.1595,170.7533,136.8307,351.5993,0,U,66184,999,587,.66614595E-3,.22136E-3,0
STARLINK-35377,2025-243J,2026-06-11T05:29:40.479072,15.34394887,.00011778,53.1599,170.8786,97.9423,262.1713,0,U,66185,999,3497,.3665917E-3,.12028E-3,0
STARLINK-35365,2025-243K,2026-06-11T05:40:59.308320,15.30209437,.00014029,53.1568,170.9248,147.4263,212.6825,0,U,66186,999,3497,.68282188E-3,.19924E-3,0
STARLINK-35350,2025-243L,2026-06-11T07:25:41.058336,15.30191943,.00011057,53.1563,170.6699,91.2265,268.8863,0,U,66187,999,3498,.62241928E-3,.18116E-3,0
STARLINK-35041,2025-243M,2026-06-11T07:01:22.222848,15.30199621,.00010794,53.1582,170.5641,68.6637,291.4479,0,U,66188,999,3498,.44845832E-3,.12946E-3,0
STARLINK-34694,2025-243N,2026-06-11T05:18:10.503360,15.30213943,.00013037,53.1596,170.8246,87.0396,273.0754,0,U,66189,999,3497,.64235881E-3,.18722E-3,0
STARLINK-34863,2025-243P,2026-06-11T05:36:26.182368,15.30203447,.00011523,53.1570,170.9025,78.0787,282.0343,0,U,66190,999,3497,.50844985E-3,.14731E-3,0
STARLINK-35061,2025-243Q,2026-06-11T07:28:43.332096,15.30190679,.00010398,53.1572,170.6799,97.8979,262.2139,0,U,66191,999,3498,.36174488E-3,.10367E-3,0
STARLINK-34937,2025-243R,2026-06-11T06:00:02.000160,15.34401091,.00014534,53.1591,170.8683,108.2706,321.8631,0,U,66192,999,587,-.60164303E-3,-.20649E-3,0
STARLINK-35197,2025-243S,2026-06-11T04:59:57.712704,15.30211046,.00013656,53.1578,170.7425,77.5861,282.5292,0,U,66193,999,3497,.74284504E-3,.21714E-3,0
STARLINK-35374,2025-243T,2026-06-11T07:05:06.322848,15.31693737,.00012885,53.1570,169.8669,78.1832,281.9314,0,U,66194,999,3499,.76911834E-3,.23572E-3,0
STARLINK-34813,2025-243U,2026-06-11T06:43:07.784544,15.30207643,.00013662,53.1594,170.4797,89.2725,270.8432,0,U,66195,999,3498,.41485749E-3,.1195E-3,0
STARLINK-35409,2025-243V,2026-06-11T06:47:41.473824,15.30203176,.00013486,53.1587,170.4996,89.4758,270.6397,0,U,66196,999,3498,.33560021E-3,.9594E-4,0
STARLINK-35259,2025-243W,2026-06-11T06:56:49.080480,15.30211233,.00014546,53.1588,170.5422,79.5070,280.6094,0,U,66197,999,3498,.49531474E-3,.14344E-3,0
STARLINK-35518,2025-243X,2026-06-11T04:29:43.666080,15.30203868,.00019558,53.1573,171.3257,128.2498,231.8679,0,U,66198,999,3496,.36874981E-3,.10579E-3,0
STARLINK-35509,2025-243Y,2026-06-11T04:58:26.495040,15.30197683,.00012832,53.1584,170.7360,87.3866,272.7282,0,U,66199,999,3497,.66235104E-3,.19307E-3,0
STARLINK-35551,2025-243Z,2026-06-11T05:03:00.057312,15.30194835,.00010976,53.1572,170.7554,86.2212,273.8914,0,U,66200,999,3497,.45614101E-3,.13172E-3,0
STARLINK-35543,2025-243AA,2026-06-11T05:58:01.164576,15.31713489,.00019918,53.1584,170.2904,135.7754,224.3407,0,U,66201,999,3498,.3385758E-3,.1016E-3,0
STARLINK-35534,2025-243AB,2026-06-11T06:46:10.223328,15.30195228,.00013359,53.1598,170.4912,84.1449,275.9704,0,U,66202,999,3498,.61497391E-3,.17896E-3,0
STARLINK-35548,2025-243AC,2026-06-11T06:50:43.756224,15.30197618,.000139,53.1600,170.5102,88.0967,272.0193,0,U,66203,999,3498,.66680639E-3,.1944E-3,0
STARLINK-35490,2025-243AD,2026-06-11T06:59:50.885088,15.30199652,.00011869,53.1588,170.5516,84.1558,275.9579,0,U,66204,999,3498,.65423348E-3,.19067E-3,0
STARLINK-35748,2025-244A,2026-06-11T06:01:15.371040,15.34393357,.00010985,53.1582,154.6644,78.7608,281.3518,0,U,66206,999,3599,.53244927E-3,.17652E-3,0
STARLINK-35747,2025-244B,2026-06-11T05:18:57.168000,15.34404516,.00017454,53.1575,155.1348,150.2244,209.8858,0,U,66207,999,3598,.65368979E-3,.21777E-3,0
STARLINK-35751,2025-244C,2026-06-11T06:43:40.734912,15.34423136,.00013311,53.1591,154.8416,92.8088,267.3066,0,U,66208,999,3599,.47201609E-3,.15616E-3,0
STARLINK-35750,2025-244D,2026-06-11T06:22:27.915168,15.34396356,.00015024,53.1586,154.7512,84.8339,275.2835,0,U,66209,999,3599,.7995533E-3,.26731E-3,0
STARLINK-35740,2025-244E,2026-06-11T06:04:17.282784,15.34394868,.00012988,53.1578,154.6741,79.6909,280.4240,0,U,66210,999,3599,.51160466E-3,.16945E-3,0
STARLINK-35723,2025-244F,2026-06-11T06:00:02.000160,15.34390028,.00013642,53.1575,154.8916,113.4355,125.7006,0,U,66211,999,577,-.11314916E-3,-.4196E-4,0
STARLINK-35710,2025-244G,2026-06-11T04:58:24.047328,15.30198705,.00010561,53.1554,155.8023,69.0284,291.0829,0,U,66212,999,3597,.72693131E-3,.21231E-3,0
STARLINK-34204,2025-244H,2026-06-11T06:45:57.991680,15.30202155,.00016736,53.1567,154.8486,83.7185,276.4006,0,U,66213,999,3599,.69225247E-3,.20201E-3,0
